LEMUR-2-AMANDA-SVANTE   
1 48269U 21034B   26068.77637527  .00030872  00000+0  11134-2 0  9996
2 48269  97.5829 144.8625 0002703 205.4721 154.6385 15.28469003265849
STARLINK-33535          
1 63417U 25065U   26068.51545635  .00020527  00000+0  75277-3 0  9991
2 63417  43.0001 107.9625 0001281 289.7459  70.3254 15.27607254 52813
